{"type": "FeatureCollection", "features": [ {"type": "Feature", "properties": {"norad_id": 66446, "name": "STARLINK-34986", "group": "last-30-days", "lat": 38.91292941132348, "lon": 155.73040458843073, "alt_km": 410.05171057768075, "timestamp": "2025-12-04T10:51:48.875539+00:00", "meta": {"OBJECT_NAME": "STARLINK-34986", "OBJECT_ID": "2025-259AA", "EPOCH": "2025-12-04T04:00:03.000096", "MEAN_MOTION": 15.50619077, "ECCENTRICITY": 0.0001667, "INCLINATION": 43.0005, "RA_OF_ASC_NODE": 97.3723, "ARG_OF_PERICENTER": 256.2229, "MEAN_ANOMALY": 12.8317, "EPHEMERIS_TYPE": 0, "CLASSIFICATION_TYPE": "U", "NORAD_CAT_ID": 66446, "ELEMENT_SET_NO": 999, "REV_AT_EPOCH": 490, "BSTAR": -0.0022087, "MEAN_MOTION_DOT": -0.00128007, "MEAN_MOTION_DDOT": 0}, "tle": {"line1": "1 66446U 25259AA  25338.16670139 -.00128007  00000+0 -22087-2 0  9993", "line2": "2 66446  43.0005  97.3723 0001667 256.2229  12.8317 15.50619077  4905"}}, "geometry": {"type": "Point", "coordinates": [155.73040458843073, 38.91292941132348]}}, {"type": "Feature", "properties": {"norad_id": 66447, "name": "STARLINK-34851", "group": "last-30-days", "lat": 40.125401893090356, "lon": 160.44135331948652, "alt_km": 409.713307409982, "timestamp": "2025-12-04T10:51:48.875549+00:00", "meta": {"OBJECT_NAME": "STARLINK-34851", "OBJECT_ID": "2025-259AB", "EPOCH": "2025-12-04T04:00:03.000096", "MEAN_MOTION": 15.50631845, "ECCENTRICITY": 0.0001444, "INCLINATION": 43.0005, "RA_OF_ASC_NODE": 97.3634, "ARG_OF_PERICENTER": 259.1425, "MEAN_ANOMALY": 13.7374, "EPHEMERIS_TYPE": 0, "CLASSIFICATION_TYPE": "U", "NORAD_CAT_ID": 66447, "ELEMENT_SET_NO": 999, "REV_AT_EPOCH": 479, "BSTAR": -0.0025479, "MEAN_MOTION_DOT": -0.00147317, "MEAN_MOTION_DDOT": 0}, "tle": {"line1": "1 66447U 25259AB  25338.16670139 -.00147317  00000+0 -25479-2 0  9997", "line2": "2 66447  43.0005  97.3634 0001444 259.1425  13.7374 15.50631845  4797"}}, "geometry": {"type": "Point", "coordinates": [160.44135331948652, 40.125401893090356]}}, {"type": "Feature", "properties": {"norad_id": 66448, "name": "STARLINK-35355", "group": "last-30-days", "lat": 40.6612580785885, "lon": 162.8703823592032, "alt_km": 409.63333326570046, "timestamp": "2025-12-04T10:51:48.875561+00:00", "meta": {"OBJECT_NAME": "STARLINK-35355", "OBJECT_ID": "2025-259AC", "EPOCH": "2025-12-04T04:00:03.000096", "MEAN_MOTION": 15.50645285, "ECCENTRICITY": 0.0001494, "INCLINATION": 43.0006, "RA_OF_ASC_NODE": 97.3584, "ARG_OF_PERICENTER": 265.3608, "MEAN_ANOMALY": 9.4352, "EPHEMERIS_TYPE": 0, "CLASSIFICATION_TYPE": "U", "NORAD_CAT_ID": 66448, "ELEMENT_SET_NO": 999, "REV_AT_EPOCH": 490, "BSTAR": -0.0027968, "MEAN_MOTION_DOT": -0.00161462, "MEAN_MOTION_DDOT": 0}, "tle": {"line1": "1 66448U 25259AC  25338.16670139 -.00161462  00000+0 -27968-2 0  9990", "line2": "2 66448  43.0006  97.3584 0001494 265.3608   9.4352 15.50645285  4904"}}, "geometry": {"type": "Point", "coordinates": [162.8703823592032, 40.6612580785885]}}, {"type": "Feature", "properties": {"norad_id": 66449, "name": "STARLINK-34720", "group": "last-30-days", "lat": 41.14093069165044, "lon": 165.31391645918671, "alt_km": 409.61671302118066, "timestamp": "2025-12-04T10:51:48.875571+00:00", "meta": {"OBJECT_NAME": "STARLINK-34720", "OBJECT_ID": "2025-259AD", "EPOCH": "2025-12-04T04:00:03.000096", "MEAN_MOTION": 15.50632395, "ECCENTRICITY": 0.0001539, "INCLINATION": 43.0006, "RA_OF_ASC_NODE": 97.3531, "ARG_OF_PERICENTER": 259.8165, "MEAN_ANOMALY": 16.8984, "EPHEMERIS_TYPE": 0, "CLASSIFICATION_TYPE": "U", "NORAD_CAT_ID": 66449, "ELEMENT_SET_NO": 999, "REV_AT_EPOCH": 479, "BSTAR": -0.0024506, "MEAN_MOTION_DOT": -0.00141805, "MEAN_MOTION_DDOT": 0}, "tle": {"line1": "1 66449U 25259AD  25338.16670139 -.00141805  00000+0 -24506-2 0  9995", "line2": "2 66449  43.0006  97.3531 0001539 259.8165  16.8984 15.50632395  4791"}}, "geometry": {"type": "Point", "coordinates": [165.31391645918671, 41.14093069165044]}}, {"type": "Feature", "properties": {"norad_id": 66450, "name": "STARLINK-35334", "group": "last-30-days", "lat": 41.56811458965708, "lon": 167.79355551944738, "alt_km": 409.5700041717255, "timestamp": "2025-12-04T10:51:48.875583+00:00", "meta": {"OBJECT_NAME": "STARLINK-35334", "OBJECT_ID": "2025-259AE", "EPOCH": "2025-12-04T04:00:03.000096", "MEAN_MOTION": 15.5058854, "ECCENTRICITY": 0.0001571, "INCLINATION": 43.0004, "RA_OF_ASC_NODE": 97.3479, "ARG_OF_PERICENTER": 265.5927, "MEAN_ANOMALY": 13.0566, "EPHEMERIS_TYPE": 0, "CLASSIFICATION_TYPE": "U", "NORAD_CAT_ID": 66450, "ELEMENT_SET_NO": 999, "REV_AT_EPOCH": 490, "BSTAR": -0.0012683, "MEAN_MOTION_DOT": -0.00074075, "MEAN_MOTION_DDOT": 0}, "tle": {"line1": "1 66450U 25259AE  25338.16670139 -.00074075  00000+0 -12683-2 0  9994", "line2": "2 66450  43.0004  97.3479 0001571 265.5927  13.0566 15.50588540  4908"}}, "geometry": {"type": "Point", "coordinates": [167.79355551944738, 41.56811458965708]}}, {"type": "Feature", "properties": {"norad_id": 66454, "name": "VIASAT-3 F2", "group": "last-30-days", "lat": 0.5908530997285099, "lon": -60.823874408303766, "alt_km": 23700.160769386915, "timestamp": "2025-12-04T10:51:48.875597+00:00", "meta": {"OBJECT_NAME": "VIASAT-3 F2", "OBJECT_ID": "2025-261A", "EPOCH": "2025-12-03T13:51:54.074016", "MEAN_MOTION": 2.28102532, "ECCENTRICITY": 0.23421708, "INCLINATION": 5.5731, "RA_OF_ASC_NODE": 293.1816, "ARG_OF_PERICENTER": 184.1311, "MEAN_ANOMALY": 184.4414, "EPHEMERIS_TYPE": 0, "CLASSIFICATION_TYPE": "U", "NORAD_CAT_ID": 66454, "ELEMENT_SET_NO": 999, "REV_AT_EPOCH": 44, "BSTAR": 0, "MEAN_MOTION_DOT": -5.4e-07, "MEAN_MOTION_DDOT": 0}, "tle": {"line1": "1 66454U 25261A   25337.57770919 -.00000054  00000+0  00000+0 0  9994", "line2": "2 66454   5.5731 293.1816 2342170 184.1311 184.4414  2.28102532   445"}}, "geometry": {"type": "Point", "coordinates": [-60.823874408303766, 0.5908530997285099]}}, {"type": "Feature", "properties": {"norad_id": 66455, "name": "ATLAS 5 CENTAUR R/B", "group": "last-30-days", "lat": 0.16293181774466445, "lon": -66.02449922535325, "alt_km": 23647.482887807495, "timestamp": "2025-12-04T10:51:48.875609+00:00", "meta": {"OBJECT_NAME": "ATLAS 5 CENTAUR R/B", "OBJECT_ID": "2025-261B", "EPOCH": "2025-12-03T13:50:16.729728", "MEAN_MOTION": 2.28259378, "ECCENTRICITY": 0.2329638, "INCLINATION": 6.1578, "RA_OF_ASC_NODE": 292.5325, "ARG_OF_PERICENTER": 184.6415, "MEAN_ANOMALY": 175.0756, "EPHEMERIS_TYPE": 0, "CLASSIFICATION_TYPE": "U", "NORAD_CAT_ID": 66455, "ELEMENT_SET_NO": 999, "REV_AT_EPOCH": 44, "BSTAR": 0, "MEAN_MOTION_DOT": -5.3e-07, "MEAN_MOTION_DDOT": 0}, "tle": {"line1": "1 66455U 25261B   25337.57658252 -.00000053  00000+0  00000+0 0  9999", "line2": "2 66455   6.1578 292.5325 2329638 184.6415 175.0756  2.28259378   440"}}, "geometry": {"type": "Point", "coordinates": [-66.02449922535325, 0.16293181774466445]}}, {"type": "Feature", "properties": {"norad_id": 66456, "name": "STARLINK-35643", "group": "last-30-days", "lat": 41.018818201181375, "lon": -129.37258010716073, "alt_km": 396.03040308272193, "timestamp": "2025-12-04T10:51:48.875619+00:00", "meta": {"OBJECT_NAME": "STARLINK-35643", "OBJECT_ID": "2025-262A", "EPOCH": "2025-12-04T04:00:03.000096", "MEAN_MOTION": 15.56649415, "ECCENTRICITY": 0.0001672, "INCLINATION": 42.9998, "RA_OF_ASC_NODE": 121.2997, "ARG_OF_PERICENTER": 269.9867, "MEAN_ANOMALY": 32.0363, "EPHEMERIS_TYPE": 0, "CLASSIFICATION_TYPE": "U", "NORAD_CAT_ID": 66456, "ELEMENT_SET_NO": 999, "REV_AT_EPOCH": 426, "BSTAR": -0.033426, "MEAN_MOTION_DOT": -0.02168562, "MEAN_MOTION_DDOT": 0}, "tle": {"line1": "1 66456U 25262A   25338.16670139 -.02168562  00000+0 -33426-1 0  9998", "line2": "2 66456  42.9998 121.2997 0001672 269.9867  32.0363 15.56649415  4269"}}, "geometry": {"type": "Point", "coordinates": [-129.37258010716073, 41.018818201181375]}}, {"type": "Feature", "properties": {"norad_id": 66457, "name": "STARLINK-35466", "group": "last-30-days", "lat": 39.97786861192501, "lon": -124.52472272143287, "alt_km": 396.12554210109556, "timestamp": "2025-12-04T10:51:48.875629+00:00", "meta": {"OBJECT_NAME": "STARLINK-35466", "OBJECT_ID": "2025-262B", "EPOCH": "2025-12-04T04:00:03.000096", "MEAN_MOTION": 15.56649733, "ECCENTRICITY": 0.0001673, "INCLINATION": 42.9997, "RA_OF_ASC_NODE": 121.2902, "ARG_OF_PERICENTER": 265.0486, "MEAN_ANOMALY": 40.8095, "EPHEMERIS_TYPE": 0, "CLASSIFICATION_TYPE": "U", "NORAD_CAT_ID": 66457, "ELEMENT_SET_NO": 999, "REV_AT_EPOCH": 426, "BSTAR": -0.033432, "MEAN_MOTION_DOT": -0.02168938, "MEAN_MOTION_DDOT": 0}, "tle": {"line1": "1 66457U 25262B   25338.16670139 -.02168938  00000+0 -33432-1 0  9993", "line2": "2 66457  42.9997 121.2902 0001673 265.0486  40.8095 15.56649733  4262"}}, "geometry": {"type": "Point", "coordinates": [-124.52472272143287, 39.97786861192501]}}, {"type": "Feature", "properties": {"norad_id": 66458, "name": "STARLINK-35684", "group": "last-30-days", "lat": 40.52429253988192, "lon": -126.931788808731, "alt_km": 396.0405424238934, "timestamp": "2025-12-04T10:51:48.875639+00:00", "meta": {"OBJECT_NAME": "STARLINK-35684", "OBJECT_ID": "2025-262C", "EPOCH": "2025-12-04T04:00:03.000096", "MEAN_MOTION": 15.56651977, "ECCENTRICITY": 0.0001691, "INCLINATION": 42.9999, "RA_OF_ASC_NODE": 121.2947, "ARG_OF_PERICENTER": 262.2106, "MEAN_ANOMALY": 41.7294, "EPHEMERIS_TYPE": 0, "CLASSIFICATION_TYPE": "U", "NORAD_CAT_ID": 66458, "ELEMENT_SET_NO": 999, "REV_AT_EPOCH": 426, "BSTAR": -0.033477, "MEAN_MOTION_DOT": -0.02171654, "MEAN_MOTION_DDOT": 0}, "tle": {"line1": "1 66458U 25262C   25338.16670139 -.02171654  00000+0 -33477-1 0  9992", "line2": "2 66458  42.9999 121.2947 0001691 262.2106  41.7294 15.56651977  4266"}}, "geometry": {"type": "Point", "coordinates": [-126.931788808731, 40.52429253988192]}}]}